[{"OBJECT_NAME":"ASTROCAST-0404","OBJECT_ID":"2023-001DH","EPOCH":"2026-03-09T19:24:02.920896","MEAN_MOTION":15.26309833,"ECCENTRICITY":0.00068478,"INCLINATION":97.5646,"RA_OF_ASC_NODE":161.5422,"ARG_OF_PERICENTER":1.1317,"MEAN_ANOMALY":358.9936,"EPHEMERIS_TYPE":0,"CLASSIFICATION_TYPE":"U","NORAD_CAT_ID":55112,"ELEMENT_SET_NO":999,"REV_AT_EPOCH":12936,"BSTAR":0.00034435555,"MEAN_MOTION_DOT":8.87e-5,"MEAN_MOTION_DDOT":0},{"OBJECT_NAME":"STARLINK-31134","OBJECT_ID":"2023-203D","EPOCH":"2026-03-09T08:16:38.534016","MEAN_MOTION":15.27565704,"ECCENTRICITY":0.0001414,"INCLINATION":43.0027,"RA_OF_ASC_NODE":69.4663,"ARG_OF_PERICENTER":264.5032,"MEAN_ANOMALY":95.5658,"EPHEMERIS_TYPE":0,"CLASSIFICATION_TYPE":"U","NORAD_CAT_ID":58621,"ELEMENT_SET_NO":999,"REV_AT_EPOCH":12350,"BSTAR":0.0001021446,"MEAN_MOTION_DOT":2.548e-5,"MEAN_MOTION_DDOT":0}]
